COMMENT,ORIGINATOR,NORAD_CAT_ID,OBJECT_NAME,OBJECT_TYPE,CLASSIFICATION_TYPE,INTLDES,EPOCH,EPOCH_MICROSECONDS,MEAN_MOTION,ECCENTRICITY,INCLINATION,RA_OF_ASC_NODE,ARG_OF_PERICENTER,MEAN_ANOMALY,EPHEMERIS_TYPE,ELEMENT_SET_NO,REV_AT_EPOCH,BSTAR,MEAN_MOTION_DOT,MEAN_MOTION_DDOT,FILE,TLE_LINE0,TLE_LINE1,TLE_LINE2,OBJECT_ID,OBJECT_NUMBER,SEMIMAJOR_AXIS,PERIOD,APOGEE,PERIGEE,DECAYED
"GENERATED VIA SPACETRACK.ORG API","18 SPCS","55091","SPACEBEE-164","PAYLOAD","U","23001CL","2024-01-30 03:00:14","66784","15.31741322","0.0010676","97.4436","94.4091","288.3749","71.6331","0","999","5968","0.0011273","0.00034647","0","4174871","0 SPACEBEE-164","1 55091U 23001CL  24030.12516281  .00034647  00000-0  11273-2 0  9991","2 55091  97.4436  94.4091 0010676 288.3749  71.6331 15.31741322 59681","2023-001CL","55091","6848.754","94.011","477.931","463.307","0"
"GENERATED VIA SPACETRACK.ORG API","18 SPCS","55091","SPACEBEE-164","PAYLOAD","U","23001CL","2024-01-30 03:00:14","66784","15.31741322","0.0010676","97.4436","94.4091","288.3749","71.6331","0","999","5968","0.0011273","0.00034647","0","4175201","0 SPACEBEE-164","1 55091U 23001CL  24030.12516281  .00034647  00000-0  11273-2 0  9991","2 55091  97.4436  94.4091 0010676 288.3749  71.6331 15.31741322 59681","2023-001CL","55091","6848.754","94.011","477.931","463.307","0"
"GENERATED VIA SPACETRACK.ORG API","18 SPCS","55091","SPACEBEE-164","PAYLOAD","U","23001CL","2024-01-30 17:06:51","924672","15.31780471","0.0010596","97.4436","94.9997","285.7752","74.232","0","999","5977","0.0010969","0.00033747","0","4175464","0 SPACEBEE-164","1 55091U 23001CL  24030.71310098  .00033747  00000-0  10969-2 0  9995","2 55091  97.4436  94.9997 0010596 285.7752  74.2320 15.31780471 59772","2023-001CL","55091","6848.637","94.008","477.759","463.245","0"
"GENERATED VIA SPACETRACK.ORG API","18 SPCS","55091","SPACEBEE-164","PAYLOAD","U","23001CL","2024-01-31 04:05:20","463072","15.31810577","0.0010579","97.4434","95.4586","284.4651","75.5416","0","999","5984","0.0010405","0.00032031","0","4175715","0 SPACEBEE-164","1 55091U 23001CL  24031.17037573  .00032031  00000-0  10405-2 0  9990","2 55091  97.4434  95.4586 0010579 284.4651  75.5416 15.31810577 59844","2023-001CL","55091","6848.547","94.006","477.657","463.167","0"
"GENERATED VIA SPACETRACK.ORG API","18 SPCS","55091","SPACEBEE-164","PAYLOAD","U","23001CL","2024-01-31 04:05:20","463072","15.31810577","0.0010579","97.4434","95.4586","284.4651","75.5416","0","999","5984","0.0010405","0.00032031","0","4176118","0 SPACEBEE-164","1 55091U 23001CL  24031.17037573  .00032031  00000-0  10405-2 0  9990","2 55091  97.4434  95.4586 0010579 284.4651  75.5416 15.31810577 59844","2023-001CL","55091","6848.547","94.006","477.657","463.167","0"
"GENERATED VIA SPACETRACK.ORG API","18 SPCS","55091","SPACEBEE-164","PAYLOAD","U","23001CL","2024-02-01 14:34:45","338880","15.31898055","0.0010482","97.4434","96.9031","278.039","81.9661","0","999","6006","0.00097261","0.00030009","0","4176807","0 SPACEBEE-164","1 55091U 23001CL  24032.60746920  .00030009  00000-0  97261-3 0  9991","2 55091  97.4434  96.9031 0010482 278.0390  81.9661 15.31898055 60063","2023-001CL","55091","6848.287","94.001","477.330","462.973","0"
"GENERATED VIA SPACETRACK.ORG API","18 SPCS","55091","SPACEBEE-164","PAYLOAD","U","23001CL","2024-02-01 14:34:45","338880","15.31898055","0.0010482","97.4434","96.9031","278.039","81.9661","0","999","6006","0.00097261","0.00030009","0","4177069","0 SPACEBEE-164","1 55091U 23001CL  24032.60746920  .00030009  00000-0  97261-3 0  9991","2 55091  97.4434  96.9031 0010482 278.0390  81.9661 15.31898055 60063","2023-001CL","55091","6848.287","94.001","477.330","462.973","0"
"GENERATED VIA SPACETRACK.ORG API","18 SPCS","55091","SPACEBEE-164","PAYLOAD","U","23001CL","2024-02-02 03:07:14","492640","15.31930426","0.0010507","97.4434","97.428","275.749","84.2554","0","999","6014","0.0010404","0.00032147","0","4177630","0 SPACEBEE-164","1 55091U 23001CL  24033.13002885  .00032147  00000-0  10404-2 0  9993","2 55091  97.4434  97.4280 0010507 275.7490  84.2554 15.31930426 60143","2023-001CL","55091","6848.190","93.999","477.251","462.860","0"
"GENERATED VIA SPACETRACK.ORG API","18 SPCS","55091","SPACEBEE-164","PAYLOAD","U","23001CL","2024-02-02 17:13:46","153920","15.31965634","0.0010465","97.4435","98.0187","273.069","86.9354","0","999","6023","0.00097073","0.00030013","0","4177939","0 SPACEBEE-164","1 55091U 23001CL  24033.71789530  .00030013  00000-0  97073-3 0  9994","2 55091  97.4435  98.0187 0010465 273.0690  86.9354 15.31965634 60239","2023-001CL","55091","6848.085","93.997","477.117","462.784","0"
"GENERATED VIA SPACETRACK.ORG API","18 SPCS","55091","SPACEBEE-164","PAYLOAD","U","23001CL","2024-02-02 17:13:46","153920","15.31965634","0.0010465","97.4435","98.0187","273.069","86.9354","0","999","6023","0.00097073","0.00030013","0","4177944","0 SPACEBEE-164","1 55091U 23001CL  24033.71789530  .00030013  00000-0  97073-3 0  9994","2 55091  97.4435  98.0187 0010465 273.0690  86.9354 15.31965634 60239","2023-001CL","55091","6848.085","93.997","477.117","462.784","0"
"GENERATED VIA SPACETRACK.ORG API","18 SPCS","55091","SPACEBEE-164","PAYLOAD","U","23001CL","2024-02-03 04:12:09","974016","15.31993335","0.0010466","97.4437","98.4786","271.6751","88.3292","0","999","6030","0.00095884","0.00029669","0","4178485","0 SPACEBEE-164","1 55091U 23001CL  24034.17511544  .00029669  00000-0  95884-3 0  9996","2 55091  97.4437  98.4786 0010466 271.6751  88.3292 15.31993335 60307","2023-001CL","55091","6848.003","93.995","477.035","462.701","0"
"GENERATED VIA SPACETRACK.ORG API","18 SPCS","55091","SPACEBEE-164","PAYLOAD","U","23001CL","2024-02-03 16:44:36","362112","15.32024788","0.001047","97.4439","99.0037","269.5783","90.4259","0","999","6038","0.00099673","0.0003088","0","4178824","0 SPACEBEE-164","1 55091U 23001CL  24034.69764308  .00030880  00000-0  99673-3 0  9998","2 55091  97.4439  99.0037 0010470 269.5783  90.4259 15.32024788 60384","2023-001CL","55091","6847.909","93.993","476.944","462.604","0"
"GENERATED VIA SPACETRACK.ORG API","18 SPCS","55091","SPACEBEE-164","PAYLOAD","U","23001CL","2024-02-04 03:42:58","639104","15.32053657","0.0010477","97.4438","99.4635","268.0011","92.0031","0","999","6045","0.0010374","0.00032178","0","4179073","0 SPACEBEE-164","1 55091U 23001CL  24035.15484536  .00032178  00000-0  10374-2 0  9994","2 55091  97.4438  99.4635 0010477 268.0011  92.0031 15.32053657 60457","2023-001CL","55091","6847.823","93.991","476.862","462.514","0"
"GENERATED VIA SPACETRACK.ORG API","18 SPCS","55091","SPACEBEE-164","PAYLOAD","U","23001CL","2024-02-04 14:41:20","163552","15.32086116","0.0010522","97.4434","99.9225","266.7459","93.2579","0","999","6052","0.0011391","0.00035391","0","4179372","0 SPACEBEE-164","1 55091U 23001CL  24035.61203893  .00035391  00000-0  11391-2 0  9990","2 55091  97.4434  99.9225 0010522 266.7459  93.2579 15.32086116 60529","2023-001CL","55091","6847.726","93.989","476.796","462.386","0"
"GENERATED VIA SPACETRACK.ORG API","18 SPCS","55091","SPACEBEE-164","PAYLOAD","U","23001CL","2024-02-04 16:15:23","126400","15.32090486","0.0010519","97.4437","99.9883","265.8741","94.1299","0","999","6053","0.0010951","0.00034019","0","4179687","0 SPACEBEE-164","1 55091U 23001CL  24035.67735100  .00034019  00000-0  10951-2 0  9994","2 55091  97.4437  99.9883 0010519 265.8741  94.1299 15.32090486 60537","2023-001CL","55091","6847.713","93.989","476.781","462.375","0"
"GENERATED VIA SPACETRACK.ORG API","18 SPCS","55091","SPACEBEE-164","PAYLOAD","U","23001CL","2024-02-05 03:13:43","692672","15.32122965","0.0010552","97.4437","100.4478","264.028","95.9759","0","999","6060","0.0011712","0.00036438","0","4180290","0 SPACEBEE-164","1 55091U 23001CL  24036.13453348  .00036438  00000-0  11712-2 0  9990","2 55091  97.4437 100.4478 0010552 264.0280  95.9759 15.32122965 60607","2023-001CL","55091","6847.616","93.987","476.707","462.256","0"
"GENERATED VIA SPACETRACK.ORG API","18 SPCS","55091","SPACEBEE-164","PAYLOAD","U","23001CL","2024-02-05 17:20:08","837664","15.32168418","0.0010555","97.4435","101.0383","262.4931","97.5111","0","999","6069","0.0012312","0.00038373","0","4180525","0 SPACEBEE-164","1 55091U 23001CL  24036.72232451  .00038373  00000-0  12312-2 0  9992","2 55091  97.4435 101.0383 0010555 262.4931  97.5111 15.32168418 60697","2023-001CL","55091","6847.481","93.984","476.574","462.119","0"
"GENERATED VIA SPACETRACK.ORG API","18 SPCS","55091","SPACEBEE-164","PAYLOAD","U","23001CL","2024-02-05 17:20:08","837664","15.32168418","0.0010555","97.4435","101.0383","262.4931","97.5111","0","999","6069","0.0012312","0.00038373","0","4180535","0 SPACEBEE-164","1 55091U 23001CL  24036.72232451  .00038373  00000-0  12312-2 0  9992","2 55091  97.4435 101.0383 0010555 262.4931  97.5111 15.32168418 60697","2023-001CL","55091","6847.481","93.984","476.574","462.119","0"
"GENERATED VIA SPACETRACK.ORG API","18 SPCS","55091","SPACEBEE-164","PAYLOAD","U","23001CL","2024-02-06 02:44:24","776160","15.32197651","0.0010548","97.4434","101.432","261.3623","98.6424","0","999","6075","0.0012113","0.00037783","0","4181108","0 SPACEBEE-164","1 55091U 23001CL  24037.11417565  .00037783  00000-0  12113-2 0  9990","2 55091  97.4434 101.4320 0010548 261.3623  98.6424 15.32197651 60756","2023-001CL","55091","6847.394","93.983","476.482","462.036","0"
"GENERATED VIA SPACETRACK.ORG API","18 SPCS","55091","SPACEBEE-164","PAYLOAD","U","23001CL","2024-02-06 16:50:47","240160","15.32249986","0.0010519","97.4435","102.0228","258.8009","101.205","0","999","6084","0.0013061","0.00040828","0","4181430","0 SPACEBEE-164","1 55091U 23001CL  24037.70193565  .00040828  00000-0  13061-2 0  9993","2 55091  97.4435 102.0228 0010519 258.8009 101.2050 15.32249986 60843","2023-001CL","55091","6847.238","93.979","476.306","461.900","0"
